IRIDIUM 116             
1 43072U 17083C   24199.22744093  .00000309  00000+0  10344-3 0  9997
2 43072  86.3947 254.5046 0002277  91.5348 268.6108 14.34216303343849
IRIDIUM 130             
1 43073U 17083D   24199.19573136  .00000062  00000+0  14971-4 0  9999
2 43073  86.3954 254.7253 0002330  91.6156 268.5306 14.34217992343785
IRIDIUM 151             
1 43074U 17083E   24199.17035935  .00000143  00000+0  43990-4 0  9991
2 43074  86.3949 254.5705 0002052  94.7198 265.4232 14.34218789343803
IRIDIUM 134             
1 43075U 17083F   24199.55725921  .00000070  00000+0  17822-4 0  9999
2 43075  86.3950 254.4073 0002437  90.1348 270.0127 14.34218030343823
IRIDIUM 137             
1 43076U 17083G   24198.73271814  .00000286  00000+0  95150-4 0  9995
2 43076  86.3952 254.8305 0001900  85.2502 274.8911 14.34220030343779
IRIDIUM 141             
1 43077U 17083H   24198.65661117 -.00000048  00000+0 -24274-4 0  9993
2 43077  86.3950 254.7328 0002172  98.0496 262.0947 14.34217416343769
IRIDIUM 153             
1 43078U 17083J   24198.60878353  .00000317  00000+0  10596-3 0  9999
2 43078  86.3963 223.2230 0002313 106.3679 253.7771 14.34221120344861
IRIDIUM 131             
1 43079U 17083K   24199.41137147  .00000414  00000+0  14086-3 0  9995
2 43079  86.3953 254.5566 0002088  93.0688 267.0747 14.34220434343802
